#dP2024 12  2  0  0  0.00000000      96 __u+U IGS20 FIT  IAC
## 2343  86400.00000000   900.00000000 60646 0.0000000000000
+   52   G02G03G04G05G06G07G08G09G10G11G12G13G14G15G16G17G18
+        G19G20G21G22G23G24G25G26G27G28G29G30G31G32R01R02R03
+        R04R05R07R08R09R11R12R14R15R16R17R18R19R20R21R22R24
+        R26  0  0  0  0  0  0  0  0  0  0  0  0  0  0  0  0
+          0  0  0  0  0  0  0  0  0  0  0  0  0  0  0  0  0
++         5  7  5  6  5  6  6  5  6  5  6  5  5  5  5  5  5
++         6  5  6  6  7  6  6  4  5  5  6  5  5  6  8  7  5
++         7  6  7  6  5  5  4  5  4  7  6  6  5  8  7  8  7
++         6  0  0  0  0  0  0  0  0  0  0  0  0  0  0  0  0
++         0  0  0  0  0  0  0  0  0  0  0  0  0  0  0  0  0
%c M  cc GPS ccc cccc cccc cccc cccc ccccc ccccc ccccc ccccc
%c cc cc ccc ccc cccc cccc cccc cccc ccccc ccccc ccccc ccccc
%f  0.0000000  0.000000000  0.00000000000  0.000000000000000
%f  0.0000000  0.000000000  0.00000000000  0.000000000000000
%i    0    0    0    0      0      0      0      0         0
%i    0    0    0    0      0      0      0      0         0
/* INFORMATION & ANALYSIS CENTER (IAC)      ULTRA-RAPID DATA
/* S/V CLOCKS ARE ALIGNED TO GNSS TIME                      
/* G:C1WC2W R:C1PC2P E:C1XC5X C:C2IC6I J:C1CC2S             
/* PCV:IGS20_2317 OL/AL:FES2004  NONE     YN ORB:CoN CLK:CoN
*  2024 12 02  7 30  0.00000000
PG02   1640.981539  14935.985966 -21405.584536   -301.497122
PG03  10959.477253  22251.002556  -9813.742403    614.676344
PG04   1556.430316  22734.323614  13531.885505    489.122383
PG05   2174.944562 -17147.411041  19971.744480   -194.761603
PG06  26047.692333  -5467.366376    812.909184    -12.714561
PG07  18383.298676   9084.248373  17652.146741    -17.206351
PG08  -5425.813414  25624.872357  -2649.295294    428.439543
PG09   9101.963994  15976.596602  19047.949635    469.300697
PG10 -19680.932861  -5321.924488 -16981.060459   -218.070364
PG11  19508.337297 -12312.102129  13146.500062   -751.955568
PG12  -6159.229278 -22598.097061 -12857.631378   -555.782495
PG13  13707.999206 -22302.493436   3413.595192    688.371685
PG14  20828.348895   8591.639204 -14200.679698    551.800809
PG15   1655.332294 -26259.997645  -3496.085038    234.651906
PG16  -8571.468034  13094.025669  21045.584489   -113.691174
PG17  15873.275005   -845.117099 -20896.492263    536.041809
PG18 -20245.010596  -7138.015726  15819.428995   -660.585521
PG19  17526.564129 -10559.930676 -16832.513683    569.354477
PG20  12558.233185  -9420.006256  21490.675218    368.242792
PG21  -4852.853429  16055.385770 -19917.434590     96.025107
PG22  17735.416771   1322.686441 -19234.806527    -83.582182
PG23 -20418.988942 -16196.728261  -5681.117175    375.136822
PG24    164.760154 -16512.257436 -21212.114898   -476.572853
PG25 -17231.967706 -20359.219775  -1690.773296    498.523651
PG26 -17065.812138   4212.094916  19834.384404      6.073139
PG27 -12542.607083  21770.173822   7600.628618    -34.476893
PG28 -26020.684595   5110.287221  -1572.219512   -496.294433
PG29  -7286.370111 -16781.736455  19167.954189   -559.272518
PG30  25442.276107    847.666052   8197.598957   -270.001515
PG31 -23089.909397  10335.349578   8433.077070   -220.740602
PG32 -16251.191834   4790.393655 -20180.420208   -565.399233
PR01  10098.985321  13037.403717  19460.906676    106.339871
PR02  10382.548476  -5415.323713  22712.822086    -39.317085
PR03   5232.361132 -21409.981688  12945.984344    112.450130
PR04  -2289.983359 -25171.297196  -3504.491273    266.618868
PR05  -8719.684562 -15688.652297 -18130.847982    141.567580
PR07  -5047.809883  21595.565168 -12510.624751     96.115651
PR08   2732.658496  25045.956846   3898.096395     -6.191247
PR09 -20940.043787  -2206.337354  14352.729262    223.838960
PR11   8099.566201  14501.133825  19372.136659      5.663306
PR12  21833.845166  12877.699119   2802.915468     47.905407
PR14   7921.835969  -8375.055062 -22749.179572     27.331559
PR15  -9649.402566 -14942.967918 -18266.845551     73.541504
PR16 -21822.122296 -12838.479077  -2950.248807     31.280033
PR17  17068.398273 -16043.715384  10059.701811    144.931795
PR18   3509.073266 -13469.386817  21410.036581    174.708010
PR19 -10414.439962  -5763.247351  22569.257173   -300.471459
PR20 -22570.946367   8207.515487   8556.748194   -122.662737
PR21 -17948.784687  15731.353700  -9034.246141   -156.120540
PR22  -2361.857943  13219.993633 -21652.364644    -28.249277
PR24  22291.754374  -9477.554843  -7940.629265    -82.421814
PR26   2018.435068  25359.142751   2000.955587   -133.115795
*  2024 12 02  7 45  0.00000000
PG02   -772.384641  15677.904941 -20896.527819   -301.489256
PG03  10007.038983  21447.761460 -12328.736085    614.684754
PG04    912.692822  24011.366532  11162.651722    489.128068
PG05   3949.104698 -15564.360354  20968.288917   -194.762961
PG06  26004.969981  -5288.662878  -2090.047096    -12.741091
PG07  16468.896244   9670.231807  19170.940945    -17.204651
PG08  -5766.916845  25671.138764    207.776491    428.448071
PG09   8419.098068  17980.047583  17516.400538    469.315711
PG10 -20871.177050  -6742.956540 -14993.470578   -218.083865
PG11  20885.452548 -12369.257822  10746.180133   -751.956410
PG12  -5026.942516 -21520.810346 -15055.172428   -555.784749
PG13  13681.790701 -21674.718068   6235.059100    688.372942
PG14  21672.489633   9851.091295 -11971.256309    551.807864
PG15   2006.255585 -26402.221262   -692.500294    234.655852
PG16 -10184.452418  11167.245804  21467.030129   -113.682563
PG17  15062.285291   1526.288822 -21423.210735    536.027493
PG18 -18417.459907  -7674.085654  17675.291561   -660.585452
PG19  16910.288114  -8637.780237 -18527.460092    569.358477
PG20  14467.333451  -7948.356209  20861.130815    368.242146
PG21  -7097.305767  16646.974917 -18647.402522     96.023873
PG22  18983.702734   3142.891057 -17779.624185    -83.584600
PG23 -20642.461888 -16664.292938  -2851.193158    375.143812
PG24   2374.417113 -17185.909620 -20480.922056   -476.570437
PG25 -16826.260667 -20321.298835  -4479.953159    498.523302
PG26 -18657.270182   2633.822963  18684.787623      6.060937
PG27 -12513.439096  20666.365873  10221.609684    -34.476707
PG28 -25759.706045   4776.750116  -4400.903297   -496.304564
PG29  -6415.137596 -18713.312683  17621.655253   -559.269770
PG30  24478.227210   1363.568646  10699.532526   -269.994340
PG31 -23955.942812  10281.215709   5769.017014   -220.739967
PG32 -15678.318894   2449.846709 -21044.234164   -565.394104
PR01  10418.191658  15300.947902  17551.576007    106.341323
PR02  10525.738081  -2599.751859  23134.333108    -39.316745
PR03   5219.468608 -19660.062421  15481.149510    112.451059
PR04  -2488.722381 -25397.285747   -287.690037    266.620246
PR05  -8965.155005 -17783.155569 -15950.164496    141.567999
PR07  -5037.318955  19877.982299 -15092.668801     96.116426
PR08   2915.910096  25310.025758    689.439246     -6.190806
PR09 -22439.543460  -2793.817489  11736.983303    223.842403
PR11   5884.170839  13375.110144  20919.064124      5.662000
PR12  21404.984092  12528.244672   5950.106836     47.905996
PR14  10439.356072  -7222.636253 -22121.353489     27.331661
PR15  -7547.446685 -13856.109769 -20027.277503     73.540811
PR16 -21380.261582 -12464.018627  -6104.634249     31.279839
PR17  17852.114928 -16771.510788   7056.553587    144.934868
PR18   5595.755337 -14934.821783  19946.375552    174.709653
PR19  -7979.020335  -7191.137019  23144.137599   -300.472412
PR20 -21411.004189   7735.450943  11485.366438   -122.664557
PR21 -18622.005646  16396.886781  -5975.353175   -156.123850
PR22  -4542.783826  14636.175631 -20356.124582    -28.260432
PR24  21249.445351  -8939.814557 -10872.993324    -82.423274
PR26   2191.325895  25392.040786  -1219.755019   -133.115488
EOF
